STARLINK-3761           
1 52262U 22041B   26177.74308199  .00004505  00000+0  30116-3 0  9997
2 52262  53.1592 339.3578 0001077  96.3134 263.7980 15.08814244230820
STARLINK-3786           
1 52263U 22041C   26177.74677588 -.00000949  00000+0 -41531-4 0  9993
2 52263  53.1596 339.3886 0001238  92.8752 267.2381 15.08822903230828
STARLINK-3795           
1 52264U 22041D   26177.75001156  .01079917  00000+0  38037-1 0  9991
2 52264  53.1604 338.6358 0001521  79.9415   0.2863 15.26314820  5770
STARLINK-3740           
1 52265U 22041E   26177.73014612  .00198224  00000+0  11058-1 0  9997
2 52265  53.1618 339.4039 0001501  96.8387 263.2776 15.12192877230826
STARLINK-3739           
1 52266U 22041F   26177.72333639  .00015761  00000+0  98406-3 0  9998
2 52266  53.2136 339.5515 0000563  48.2841 311.8200 15.09654420230821
STARLINK-3748           
1 52267U 22041G   26177.72673775  .00134098  00000+0  80061-2 0  9999
2 52267  53.1590 339.4718 0001022  67.4491 292.6609 15.10091275230828
STARLINK-3746           
1 52268U 22041H   26177.17159372  .00177362  00000+0  96233-2 0  9990
2 52268  53.1602 341.8106 0000905 127.4368 232.6708 15.13301500230743
STARLINK-3791           
1 52269U 22041J   26177.72468419 -.00000417  00000+0 -80963-5 0  9991
2 52269  53.1625 339.4898 0001723  94.1002 266.0186 15.08832916230828
STARLINK-3804           
1 52270U 22041K   26177.71732458  .00000293  00000+0  36529-4 0  9997
2 52270  53.1591 339.5511 0001915  93.6119 266.5091 15.08836300230822
STARLINK-3788           
1 52271U 22041L   26177.72100397 -.00000310  00000+0 -14093-5 0  9995
2 52271  53.1611 339.5058 0001496  91.8338 268.2825 15.08833230230822
STARLINK-3781           
1 52272U 22041M   26177.70732955  .00186909  00000+0  10212-1 0  9997
2 52272  53.1601 339.5299 0002606  19.8743 340.2351 15.13003179230825
STARLINK-3782           
1 52273U 22041N   26177.68613237 -.00000453  00000+0 -10387-4 0  9993
2 52273  53.1608 330.0444 0001318  92.9571 267.1571 15.08827586230956
STARLINK-3790           
1 52274U 22041P   26177.70363515  .00193994  00000+0  11285-1 0  9994
2 52274  53.1606 339.5549 0001885  63.9018 296.2168 15.10703693230824
STARLINK-3784           
1 52275U 22041Q   26177.71364296 -.00000372  00000+0 -52342-5 0  9995
2 52275  53.1584 339.5396 0001772  85.2522 274.8671 15.08834373230820
STARLINK-3778           
1 52276U 22041R   26177.17268647  .00000422  00000+0  44627-4 0  9999
2 52276  53.1606 341.9698 0001352  85.5184 274.5962 15.08830550230743
STARLINK-3780           
1 52278U 22041T   26177.69892808  .00000430  00000+0  45107-4 0  9993
2 52278  53.1622 339.6038 0001382  85.2071 274.9079 15.08828891230827
STARLINK-3764           
1 52280U 22041V   26177.75054291  .00147729  00000+0  85007-2 0  9993
2 52280  53.1614 339.3384 0001089 307.7753  52.3141 15.11350795230831
STARLINK-3779           
1 52281U 22041W   26177.70355939  .00000731  00000+0  64044-4 0  9993
2 52281  53.1625 339.5825 0001502  86.4550 273.6613 15.08837789230822
STARLINK-3783           
1 52282U 22041X   26177.68144503  .00000169  00000+0  28698-4 0  9994
2 52282  53.1591 329.6832 0000643  93.0910 267.0155 15.08829712230951
STARLINK-3789           
1 52283U 22041Y   26177.69524747 -.00000065  00000+0  13998-4 0  9991
2 52283  53.1610 339.6184 0001299  77.2246 282.8891 15.08829518230821
STARLINK-3561           
1 52284U 22041Z   26177.74032679 -.00000247  00000+0  25957-5 0  9997
2 52284  53.1599 329.4185 0001031  82.5602 277.5506 15.08830737230969
STARLINK-3802           
1 52286U 22041AB  26177.73297221 -.00000853  00000+0 -35497-4 0  9997
2 52286  53.1605 329.4524 0001060  88.9422 271.1691 15.08831390230969
STARLINK-3822           
1 52287U 22041AC  26177.68420383  .00000221  00000+0  31954-4 0  9990
2 52287  53.1596 339.6703 0000931  77.8389 282.2706 15.08830434230829
STARLINK-3776           
1 52288U 22041AD  26177.72929072 -.00001048  00000+0 -47764-4 0  9991
2 52288  53.1598 329.4690 0001211  88.6796 271.4334 15.08828454230969
STARLINK-3751           
1 52289U 22041AE  26177.74400258 -.00001226  00000+0 -58973-4 0  9996
2 52289  53.1619 329.4012 0000982  82.8280 277.2823 15.08839171230965
STARLINK-3772           
1 52290U 22041AF  26177.71920657 -.00000191  00000+0  61057-5 0  9992
2 52290  53.1598 329.5114 0001240  90.5833 269.5300 15.08826401230961
STARLINK-3753           
1 52292U 22041AH  26177.71456949 -.00000197  00000+0  57196-5 0  9997
2 52292  53.1616 329.5329 0001509  94.9251 265.1913 15.08827562230963
STARLINK-3771           
1 52293U 22041AJ  26177.72656330  .00000337  00000+0  39239-4 0  9997
2 52293  53.1594 329.4898 0001145  87.4407 272.6716 15.08831945230969
STARLINK-3777           
1 52294U 22041AK  26177.71088758 -.00000361  00000+0 -45734-5 0  9997
2 52294  53.1589 329.5482 0001508  97.5224 262.5939 15.08828588230960
STARLINK-3765           
1 52295U 22041AL  26177.72192707 -.00000267  00000+0  12932-5 0  9997
2 52295  53.1596 329.5003 0001115  93.2493 266.8626 15.08827864230969
