OBJECT_NAME,OBJECT_ID,EPOCH,MEAN_MOTION,ECCENTRICITY,INCLINATION,RA_OF_ASC_NODE,ARG_OF_PERICENTER,MEAN_ANOMALY,EPHEMERIS_TYPE,CLASSIFICATION_TYPE,NORAD_CAT_ID,ELEMENT_SET_NO,REV_AT_EPOCH,BSTAR,MEAN_MOTION_DOT,MEAN_MOTION_DDOT
STARLINK-3761,2022-041B,2026-06-26T17:50:02.283936,15.08814244,.0001077,53.1592,339.3578,96.3134,263.7980,0,U,52262,999,23082,.30116E-3,.4505E-4,0
STARLINK-3786,2022-041C,2026-06-26T17:55:21.436032,15.08822903,.0001238,53.1596,339.3886,92.8752,267.2381,0,U,52263,999,23082,-.41531E-4,-.949E-5,0
STARLINK-3795,2022-041D,2026-06-26T18:00:00.998784,15.26314820,.0001521,53.1604,338.6358,79.9415,0.2863,0,U,52264,999,577,.38037E-1,.1079917E-1,0
STARLINK-3740,2022-041E,2026-06-26T17:31:24.624768,15.12192877,.0001501,53.1618,339.4039,96.8387,263.2776,0,U,52265,999,23082,.11058E-1,.198224E-2,0
STARLINK-3739,2022-041F,2026-06-26T17:21:36.264096,15.09654420,.0000563,53.2136,339.5515,48.2841,311.8200,0,U,52266,999,23082,.98406E-3,.15761E-3,0
STARLINK-3748,2022-041G,2026-06-26T17:26:30.141600,15.10091275,.0001022,53.1590,339.4718,67.4491,292.6609,0,U,52267,999,23082,.80061E-2,.134098E-2,0
STARLINK-3746,2022-041H,2026-06-26T04:07:05.697408,15.13301500,.00009056,53.1602,341.8106,127.4368,232.6708,0,U,52268,999,23074,.96232694E-2,.177362E-2,0
STARLINK-3791,2022-041J,2026-06-26T17:23:32.714016,15.08832916,.0001723,53.1625,339.4898,94.1002,266.0186,0,U,52269,999,23082,-.80963E-5,-.417E-5,0
STARLINK-3804,2022-041K,2026-06-26T17:12:56.843712,15.08836300,.0001915,53.1591,339.5511,93.6119,266.5091,0,U,52270,999,23082,.36529E-4,.293E-5,0
STARLINK-3788,2022-041L,2026-06-26T17:18:14.743008,15.08833230,.0001496,53.1611,339.5058,91.8338,268.2825,0,U,52271,999,23082,-.14093E-5,-.31E-5,0
STARLINK-3781,2022-041M,2026-06-26T16:58:33.273120,15.13003179,.0002606,53.1601,339.5299,19.8743,340.2351,0,U,52272,999,23082,.10212E-1,.186909E-2,0
STARLINK-3782,2022-041N,2026-06-26T16:28:01.836768,15.08827586,.0001318,53.1608,330.0444,92.9571,267.1571,0,U,52273,999,23095,-.10387E-4,-.453E-5,0
STARLINK-3790,2022-041P,2026-06-26T16:53:14.076960,15.10703693,.0001885,53.1606,339.5549,63.9018,296.2168,0,U,52274,999,23082,.11285E-1,.193994E-2,0
STARLINK-3784,2022-041Q,2026-06-26T17:07:38.751744,15.08834373,.0001772,53.1584,339.5396,85.2522,274.8671,0,U,52275,999,23082,-.52342E-5,-.372E-5,0
STARLINK-3778,2022-041R,2026-06-26T04:08:40.111008,15.08830550,.00013522,53.1606,341.9698,85.5184,274.5962,0,U,52276,999,23074,.44626958E-4,.422E-5,0
STARLINK-3780,2022-041T,2026-06-26T16:46:27.386112,15.08828891,.0001382,53.1622,339.6038,85.2071,274.9079,0,U,52278,999,23082,.45107E-4,.43E-5,0
STARLINK-3764,2022-041V,2026-06-26T18:00:46.907424,15.11350795,.0001089,53.1614,339.3384,307.7753,52.3141,0,U,52280,999,23083,.85007E-2,.147729E-2,0
STARLINK-3779,2022-041W,2026-06-26T16:53:07.531296,15.08837789,.0001502,53.1625,339.5825,86.4550,273.6613,0,U,52281,999,23082,.64044E-4,.731E-5,0
STARLINK-3783,2022-041X,2026-06-26T16:21:16.850592,15.08829712,.0000643,53.1591,329.6832,93.0910,267.0155,0,U,52282,999,23095,.28698E-4,.169E-5,0
STARLINK-3789,2022-041Y,2026-06-26T16:41:09.381408,15.08829518,.0001299,53.1610,339.6184,77.2246,282.8891,0,U,52283,999,23082,.13998E-4,-.65E-6,0
STARLINK-3561,2022-041Z,2026-06-26T17:46:04.234656,15.08830737,.0001031,53.1599,329.4185,82.5602,277.5506,0,U,52284,999,23096,.25957E-5,-.247E-5,0
STARLINK-3802,2022-041AB,2026-06-26T17:35:28.798944,15.08831390,.000106,53.1605,329.4524,88.9422,271.1691,0,U,52286,999,23096,-.35497E-4,-.853E-5,0
STARLINK-3822,2022-041AC,2026-06-26T16:25:15.210912,15.08830434,.0000931,53.1596,339.6703,77.8389,282.2706,0,U,52287,999,23082,.31954E-4,.221E-5,0
STARLINK-3776,2022-041AD,2026-06-26T17:30:10.718208,15.08828454,.0001211,53.1598,329.4690,88.6796,271.4334,0,U,52288,999,23096,-.47764E-4,-.1048E-4,0
STARLINK-3751,2022-041AE,2026-06-26T17:51:21.822912,15.08839171,.0000982,53.1619,329.4012,82.8280,277.2823,0,U,52289,999,23096,-.58973E-4,-.1226E-4,0
STARLINK-3772,2022-041AF,2026-06-26T17:15:39.447648,15.08826401,.000124,53.1598,329.5114,90.5833,269.5300,0,U,52290,999,23096,.61057E-5,-.191E-5,0
STARLINK-3753,2022-041AH,2026-06-26T17:08:58.803936,15.08827562,.0001509,53.1616,329.5329,94.9251,265.1913,0,U,52292,999,23096,.57196E-5,-.197E-5,0
STARLINK-3771,2022-041AJ,2026-06-26T17:26:15.069120,15.08831945,.0001145,53.1594,329.4898,87.4407,272.6716,0,U,52293,999,23096,.39239E-4,.337E-5,0
STARLINK-3777,2022-041AK,2026-06-26T17:03:40.686912,15.08828588,.0001508,53.1589,329.5482,97.5224,262.5939,0,U,52294,999,23096,-.45734E-5,-.361E-5,0
STARLINK-3765,2022-041AL,2026-06-26T17:19:34.498848,15.08827864,.0001115,53.1596,329.5003,93.2493,266.8626,0,U,52295,999,23096,.12932E-5,-.267E-5,0
